#dP2018  3  1  0  0  0.00000000      96 __u+U IGS08 FIT  IAC
## 1990 345600.00000000   900.00000000 58178 0.0000000000000
+   88   C01C02C03C04C05C06C07C08C09C10C11C12C13C14E01E02E03
+        E04E05E07E08E09E11E12E14E18E19E24E26E30G01G02G03G04
+        G05G06G07G08G09G10G11G12G13G14G15G16G17G19G20G21G22
+        G23G24G25G26G27G28G29G30G31G32J01J02J03R01R02R03R04
+        R05R06R07R08R09R10R11R13R14R15R16R17R18R19R20R21R22
+        R23R24R26  0  0  0  0  0  0  0  0  0  0  0  0  0  0
++        12 11  0 12 12  8  8  8  8  8  7  8  8  7  7  7  7
++         7  7  7  7  7  7  7  7  7  7  7  7  7  3  3  3  6
++         3  3  3  3  3  3  0  3  3  3  3  3  3  3  3  3  3
++         3  3  3  3  3  3  3  3  3  3 10 13 13  5  5  5  6
++         5  5  5  5  5  5  5  5  5  5  5  5  5  5  5  5  5
++         5  6  8  0  0  0  0  0  0  0  0  0  0  0  0  0  0
%c M  cc GPS ccc cccc cccc cccc cccc ccccc ccccc ccccc ccccc
%c cc cc ccc ccc cccc cccc cccc cccc ccccc ccccc ccccc ccccc
%f  1.2500000  1.025000000  0.00000000000  0.000000000000000
%f  0.0000000  0.000000000  0.00000000000  0.000000000000000
%i    0    0    0    0      0      0      0      0         0
%i    0    0    0    0      0      0      0      0         0
/* INFORMATION & ANALYSIS CENTER (IAC)            FINAL DATA
/* S/V CLOCKS ARE ALIGNED TO GPS & GLONASS TIME RESPECTIVELY
/* USING THE BROADCAST EPHEMERIS                            
/* PCV:IGS14_1984 OL/AL:FES2004  NONE     YN ORB:CoN CLK:CoN
*  2018 03 01  3  0  0.00000000
PC01 -32298.192027  27106.716937   -235.579340    426.527021
PC02   4392.943179  41920.645320   -529.601553   -259.951717
PC03 -14648.675547  39494.800625  -1143.462485 999999.999999
PC04 -39633.670675  14353.147977   -348.454289     21.910709
PC05  21881.683916  36021.970634   -560.920797   -156.327121
PC06 -20947.290665  24766.167421  27009.893700   -680.055750
PC07 -16213.339801  38355.876603   8034.109708   -328.550354
PC08  -6360.389019  23974.649312 -33962.079256    203.047250
PC09  -6217.866126  25281.741290  33258.776785   -358.416424
PC10  -6831.595101  41540.350079  -4501.991619    -50.393841
PC11 -26570.600039  -6811.526937  -5275.799729   -410.010070
PC12 -18412.284316 -16486.766856  13105.944474    386.903230
PC13   7515.326671  32575.504774 -25545.570726   -227.039273
PC14 -21477.502097   1485.139190 -17670.774592    250.017838
PE01  11379.851685 -25591.889080  -9585.368059   -287.632247
PE02 -11363.194382  25597.454159   9560.244588      6.128465
PE03 -18729.617201  17456.700057  14861.147751     -4.498094
PE04  -1964.881457 -17292.353412 -23942.293582     14.707396
PE05 -28508.657064   7389.531715  -2956.666768    312.860003
PE07  21588.397690   6982.767913  19012.161357     75.952406
PE08   2055.162637  17148.647074  24041.192108   6632.793340
PE09 -21587.427311  -6688.640986 -19117.047858   6861.597119
PE11 -23749.739130 -17287.075517  -3545.541179   1846.334937
PE12 -11303.095702 -22960.804741  14866.486738   3611.979424
PE14  28007.023670   7878.025400  -3448.858017   6623.254949
PE18 -25721.805053   4063.520403 -10810.785538   6392.234549
PE19  20263.236643 -16896.001964 -13428.230049     19.877528
PE24 -12493.698518 -13930.066168  22928.647203   6837.250799
PE26  22247.415637   1804.517910  19451.039225   6216.832097
PE30    784.471391  27988.005019  -9594.675955   6039.061593
PG01  16503.760129   2713.963317  20564.677382    -31.490024
PG02 -14300.790576 -22083.857042  -4009.820284    187.054098
PG03  19494.838461  -6795.558594  16661.095153     19.061833
PG04  -4858.429376  21823.413452 -14350.115431     41.048385
PG05  -9949.110180 -12444.033068 -21327.092067    -13.170020
PG06  -5859.355918 -24982.791554   6844.902518    413.721382
PG07   9561.149430 -13921.760480 -20181.463505    229.803837
PG08  25939.224892   4964.751864  -3422.813462    -92.836735
PG09  19099.412219  -9444.336979 -15900.872395    504.063573
PG10  -8863.668205  23141.516910   9382.649837    165.390682
PG11  21197.826876   3472.144187  14980.078755 999999.999999
PG12 -18949.209491   4282.467798  17837.229333    347.795401
PG13 -20885.261901 -12489.415778 -10750.084660    -95.598023
PG14   7580.228515  15851.143146  20250.381162    -94.580011
PG15 -26408.141613  -3219.781781  -3193.876046   -356.738813
PG16   8538.443837  12304.523340 -22036.473474     31.267514
PG17   2264.813100 -14756.646411  22354.566938   -119.421867
PG19  -5619.480800 -15339.478956  20615.643333   -453.911603
PG20 -19052.125511   6948.815434 -17272.224807    502.054761
PG21  -6411.047304  17205.196949 -18385.703903   -424.923056
PG22  17726.316396    468.131502  20019.542192   -307.679481
PG23  26208.747195  -1137.302810  -5140.889386   -218.801023
PG24 -17903.971699  -5657.722964  18776.453766    -46.687800
PG25 -19006.493808  16447.475107   8028.187585   -546.293597
PG26    370.386367  20257.351492 -17108.294501   -233.764584
PG27  18418.514085  12182.664966 -15003.627481    368.510158
PG28  12757.041668 -22219.043696   7704.395576    693.007135
PG29 -22163.618496   5360.577439 -13616.535044    489.265343
PG30   3888.454522 -21268.659209 -15328.198940     99.208601
PG31   5874.919737  25075.829428   5543.495251    138.521991
PG32  -2048.280245  15171.074249  21728.458995   -530.647385
PJ01 -26696.444800  32553.380213   1573.501544    -82.611739
PJ02 -25023.140966  24993.356022  27510.683721     -0.059972
PJ03 -33081.629178  17669.096956 -14610.994164    -16.281011
PR01 -20296.800473   2858.075798 -15194.207971     22.732099
PR02 -21361.231910  13413.052036   3664.731700    297.595338
PR03  -8969.456893  14923.798774  18659.764398    125.449428
PR04   9016.479215   7418.200803  22693.395843    251.684492
PR05  21032.310153  -4041.567997  13839.484591   -256.455134
PR06  20828.939223 -14062.216129  -4466.436140    127.915753
PR07   8706.321338 -14846.215564 -18810.112626    -31.311274
PR08  -8381.574249  -7799.199826 -22745.920478     38.326533
PR09   9295.628775 -15648.108044 -17832.990315     45.358472
PR10   2205.875010 -25261.962489  -2399.906205     19.364030
PR11  -6233.997802 -19822.103317  14779.297533    -22.932329
PR13  -8600.000962  16408.012519  17513.000453     -7.962724
PR14  -2268.335517  25273.702960   2640.051880     25.074345
PR15   4520.232245  22074.189720 -11849.925101     -6.976678
PR16  10818.890002   3293.471686 -22881.318946     86.739702
PR17   2502.484353  13371.335120 -21555.883250    113.005155
PR18  17106.447670  16119.493410  -9972.638515    186.556098
PR19  22068.090030  10333.614009   7558.184680    -46.014463
PR20  13761.522322  -2546.182192  21352.664237   -328.969144
PR21  -2842.185633 -13435.614208  21507.031873     27.212119
PR22 -18071.915292 -15871.735295   8302.841509    -22.713841
PR23 -21727.965615  -7869.688568 -10791.913235    139.034825
PR24 -13119.476922   3372.632269 -21626.710361   -163.067517
PR26  13897.173767  -2693.606314  21230.349450      2.391700
EOF
